NORAD_CAT_ID,OBJECT_NAME,OBJECT_TYPE,EPOCH,MEAN_MOTION,ECCENTRICITY,INCLINATION,RA_OF_ASC_NODE,ARG_OF_PERICENTER,MEAN_ANOMALY,BSTAR,MEAN_MOTION_DOT,MEAN_MOTION_DDOT,TLE_LINE0,TLE_LINE1,TLE_LINE2,SEMIMAJOR_AXIS,PERIOD,APOGEE,PERIGEE,DECAYED
53831.0,STARLINK-4649,PAYLOAD,2024-04-05 15:08:44,15.08850137,0.0001329,53.2167,220.2578,89.8487,270.2657,0.00027857,4.15e-05,0.0,0 STARLINK-4649,1 53831U 22114P   24096.63106568  .00004150  00000-0  27857-3 0  9998,2 53831  53.2167 220.2578 0001329  89.8487 270.2657 15.08850137 86697,6917.849,95.437,540.634,538.795,0.0
53831.0,STARLINK-4649,PAYLOAD,2024-04-05 18:19:30,15.08853958,0.0001298,53.2166,219.6627,89.3481,270.7659,0.00034427,5.197e-05,0.0,0 STARLINK-4649,1 53831U 22114P   24096.76354385  .00005197  00000-0  34427-3 0  9997,2 53831  53.2166 219.6627 0001298  89.3481 270.7659 15.08853958 86171,6917.838,95.437,540.601,538.805,0.0
53831.0,STARLINK-4649,PAYLOAD,2024-04-06 14:59:31,15.08843789,0.0001835,53.2178,215.7978,92.9725,267.1477,1.6326e-05,-2.8e-07,0.0,0 STARLINK-4649,1 53831U 22114P   24097.62466443 -.00000028  00000-0  16326-4 0  9990,2 53831  53.2178 215.7978 0001835  92.9725 267.1477 15.08843789 86841,6917.869,95.437,541.003,538.464,0.0
53831.0,STARLINK-4649,PAYLOAD,2024-04-06 18:10:17,15.0883967,0.000198,53.2187,215.2064,102.0061,258.1153,-0.00014482,-2.592e-05,0.0,0 STARLINK-4649,1 53831U 22114P   24097.75714563 -.00002592  00000-0 -14482-3 0  9992,2 53831  53.2187 215.2064 0001980 102.0061 258.1153 15.08839670 86327,6917.881,95.438,541.116,538.377,0.0
53831.0,STARLINK-4649,PAYLOAD,2024-04-07 06:53:22,15.08841403,0.000163,53.2166,212.825,93.6573,266.4606,1.3972e-05,-6.6e-07,0.0,0 STARLINK-4649,1 53831U 22114P   24098.28706630 -.00000066  00000-0  13972-4 0  9994,2 53831  53.2166 212.8250 0001630  93.6573 266.4606 15.08841403 86949,6917.876,95.437,540.869,538.613,0.0
53831.0,STARLINK-4649,PAYLOAD,2024-04-07 14:50:18,15.08836244,0.0002847,53.2202,211.3363,88.9458,271.186,-1.028e-05,-4.52e-06,0.0,0 STARLINK-4649,1 53831U 22114P   24098.61827168 -.00000452  00000-0 -10280-4 0  9990,2 53831  53.2202 211.3363 0002847  88.9458 271.1860 15.08836244 86996,6917.892,95.438,541.726,537.787,0.0
53831.0,STARLINK-4649,PAYLOAD,2024-04-08 00:22:38,15.08823257,0.0002467,53.2191,209.5534,87.9901,272.1374,-0.00021701,-3.739e-05,0.0,0 STARLINK-4649,1 53831U 22114P   24099.01571904 -.00003739  00000-0 -21701-3 0  9999,2 53831  53.2191 209.5534 0002467  87.9901 272.1374 15.08823257 86511,6917.932,95.439,541.503,538.09,0.0
53831.0,STARLINK-4649,PAYLOAD,2024-04-08 06:44:10,15.08837952,0.0001879,53.2181,208.3628,83.7046,276.416,-2.3862e-05,-6.68e-06,0.0,0 STARLINK-4649,1 53831U 22114P   24099.28067349 -.00000668  00000-0 -23862-4 0  9990,2 53831  53.2181 208.3628 0001879  83.7046 276.4160 15.08837952 86552,6917.887,95.438,541.052,538.452,0.0
53831.0,STARLINK-4649,PAYLOAD,2024-04-09 12:56:29,15.08843621,0.0001835,53.221,202.7153,91.3591,268.7611,0.00030048,4.498e-05,0.0,0 STARLINK-4649,1 53831U 22114P   24100.53923561  .00004498  00000-0  30048-3 0  9994,2 53831  53.2210 202.7153 0001835  91.3591 268.7611 15.08843621 86744,6917.869,95.437,541.004,538.465,0.0
53831.0,STARLINK-4649,PAYLOAD,2024-04-10 12:47:16,15.08842304,0.0001858,53.2156,198.2536,87.5617,272.5588,6.5381e-05,7.53e-06,0.0,0 STARLINK-4649,1 53831U 22114P   24101.53283525  .00000753  00000-0  65381-4 0  9993,2 53831  53.2156 198.2536 0001858  87.5617 272.5588 15.08842304 86897,6917.873,95.437,541.024,538.453,0.0
53831.0,STARLINK-4649,PAYLOAD,2024-04-11 12:38:03,15.08859943,0.0001246,53.2166,193.7925,92.1042,268.0093,-0.00019713,-3.426e-05,0.0,0 STARLINK-4649,1 53831U 22114P   24102.52642556 -.00003426  00000-0 -19713-3 0  9995,2 53831  53.2166 193.7925 0001246  92.1042 268.0093 15.08859943 87041,6917.819,95.436,540.546,538.822,0.0
53831.0,STARLINK-4649,PAYLOAD,2024-04-12 12:28:51,15.0883925,0.0001453,53.217,189.3304,101.6198,258.4957,4.4842e-05,4.26e-06,0.0,0 STARLINK-4649,1 53831U 22114P   24103.52003608  .00000426  00000-0  44842-4 0  9992,2 53831  53.2170 189.3304 0001453 101.6198 258.4957 15.08839250 87193,6917.883,95.438,540.753,538.743,0.0
53831.0,STARLINK-4649,PAYLOAD,2024-04-13 10:44:15,15.08835879,0.0001473,53.218,185.1682,103.734,256.3816,4.9083e-05,4.93e-06,0.0,0 STARLINK-4649,1 53831U 22114P   24104.44740034  .00000493  00000-0  49083-4 0  9991,2 53831  53.2180 185.1682 0001473 103.7340 256.3816 15.08835879 87870,6917.893,95.438,540.777,538.739,0.0
53831.0,STARLINK-4649,PAYLOAD,2024-04-14 12:10:25,15.08844171,0.0001483,53.2182,180.4131,100.2039,259.9121,0.00016351,2.316e-05,0.0,0 STARLINK-4649,1 53831U 22114P   24105.50723634  .00002316  00000-0  16351-3 0  9993,2 53831  53.2182 180.4131 0001483 100.2039 259.9121 15.08844171 87498,6917.868,95.437,540.759,538.707,0.0
53831.0,STARLINK-4649,PAYLOAD,2024-04-15 12:01:12,15.08844402,0.0001456,53.2165,175.9498,90.7976,269.3183,0.00011235,1.501e-05,0.0,0 STARLINK-4649,1 53831U 22114P   24106.50083581  .00001501  00000-0  11235-3 0  9995,2 53831  53.2165 175.9498 0001456  90.7976 269.3183 15.08844402 88184,6917.867,95.437,540.739,538.725,0.0
53831.0,STARLINK-4649,PAYLOAD,2024-04-16 03:55:03,15.08843661,0.0002271,53.2167,172.9773,82.1188,278.0062,3.3336e-05,2.42e-06,0.0,0 STARLINK-4649,1 53831U 22114P   24107.16323605  .00000242  00000-0  33336-4 0  9990,2 53831  53.2167 172.9773 0002271  82.1188 278.0062 15.08843661 87745,6917.869,95.437,541.305,538.163,0.0
53831.0,STARLINK-4649,PAYLOAD,2024-04-16 11:51:59,15.0884191,0.0001763,53.2173,171.4923,87.8587,272.2607,2.2364e-05,6.8e-07,0.0,0 STARLINK-4649,1 53831U 22114P   24107.49443686  .00000068  00000-0  22364-4 0  9993,2 53831  53.2173 171.4923 0001763  87.8587 272.2607 15.08841910 88335,6917.875,95.437,540.959,538.52,0.0
53831.0,STARLINK-4649,PAYLOAD,2024-04-17 03:45:51,15.08838392,0.0001764,53.217,168.5189,78.3894,281.7296,0.00010269,1.347e-05,0.0,0 STARLINK-4649,1 53831U 22114P   24108.15684031  .00001347  00000-0  10269-3 0  9999,2 53831  53.2170 168.5189 0001764  78.3894 281.7296 15.08838392 87899,6917.885,95.438,540.971,538.53,0.0
53831.0,STARLINK-4649,PAYLOAD,2024-04-17 11:42:47,15.08831432,0.0001451,53.217,167.0286,91.9614,268.1544,-4.6435e-05,-1.027e-05,0.0,0 STARLINK-4649,1 53831U 22114P   24108.48804453 -.00001027  00000-0 -46435-4 0  9999,2 53831  53.2170 167.0286 0001451  91.9614 268.1544 15.08831432 87944,6917.907,95.438,540.775,538.768,0.0
53831.0,STARLINK-4649,PAYLOAD,2024-04-17 21:15:05,15.08836569,0.0001381,53.2169,165.2443,103.4795,256.6351,2.8078e-06,-2.43e-06,0.0,0 STARLINK-4649,1 53831U 22114P   24108.88548337 -.00000243  00000-0  28078-5 0  9991,2 53831  53.2169 165.2443 0001381 103.4795 256.6351 15.08836569 88549,6917.891,95.438,540.711,538.801,0.0
53831.0,STARLINK-4649,PAYLOAD,2024-04-18 09:58:11,15.08837139,0.0001458,53.2158,162.8638,115.8725,244.2417,7.4037e-05,8.9e-06,0.0,0 STARLINK-4649,1 53831U 22114P   24109.41540610  .00000890  00000-0  74037-4 0  9999,2 53831  53.2158 162.8638 0001458 115.8725 244.2417 15.08837139 88620,6917.889,95.438,540.763,538.746,0.0
53831.0,STARLINK-4649,PAYLOAD,2024-04-19 12:59:44,15.08850747,0.0001701,53.2173,157.8094,116.0647,244.0521,0.00041708,6.358e-05,0.0,0 STARLINK-4649,1 53831U 22114P   24110.54148492  .00006358  00000-0  41708-3 0  9990,2 53831  53.2173 157.8094 0001701 116.0647 244.0521 15.08850747 88257,6917.848,95.437,540.889,538.536,0.0
53831.0,STARLINK-4649,PAYLOAD,2024-04-20 12:50:31,15.08845375,0.0001574,53.2169,153.3496,104.9883,255.1283,6.5622e-05,7.57e-06,0.0,0 STARLINK-4649,1 53831U 22114P   24111.53508305  .00000757  00000-0  65622-4 0  9992,2 53831  53.2169 153.3496 0001574 104.9883 255.1283 15.08845375 88401,6917.864,95.437,540.818,538.64,0.0
53831.0,STARLINK-4649,PAYLOAD,2024-04-21 01:33:36,15.08836692,0.000161,53.2166,150.9711,103.1191,256.9981,-7.374e-05,-1.461e-05,0.0,0 STARLINK-4649,1 53831U 22114P   24112.06500716 -.00001461  00000-0 -73740-4 0  9994,2 53831  53.2166 150.9711 0001610 103.1191 256.9981 15.08836692 88489,6917.891,95.438,540.869,538.642,0.0
53831.0,STARLINK-4649,PAYLOAD,2024-04-21 09:30:33,15.08825842,0.0001508,53.2175,149.4821,105.9545,254.1613,-0.00012592,-2.291e-05,0.0,0 STARLINK-4649,1 53831U 22114P   24112.39622175 -.00002291  00000-0 -12592-3 0  9993,2 53831  53.2175 149.4821 0001508 105.9545 254.1613 15.08825842 89076,6917.924,95.438,540.832,538.745,0.0
53831.0,STARLINK-4649,PAYLOAD,2024-04-22 07:45:56,15.0883563,0.0001369,53.217,145.3225,86.0561,274.0588,3.3422e-05,2.44e-06,0.0,0 STARLINK-4649,1 53831U 22114P   24113.32357570  .00000244  00000-0  33422-4 0  9991,2 53831  53.2170 145.3225 0001369  86.0561 274.0588 15.08835630 88679,6917.894,95.438,540.706,538.812,0.0
53831.0,STARLINK-4649,PAYLOAD,2024-04-23 10:47:29,15.08839178,0.00013,53.2168,140.2624,81.054,279.0599,0.00020282,2.941e-05,0.0,0 STARLINK-4649,1 53831U 22114P   24114.44965218  .00002941  00000-0  20282-3 0  9994,2 53831  53.2168 140.2624 0001300  81.0540 279.0599 15.08839178 88847,6917.883,95.438,540.647,538.849,0.0
53831.0,STARLINK-4649,PAYLOAD,2024-04-24 09:02:54,15.08841024,0.0001454,53.2176,136.1061,100.7007,259.4148,-4.7718e-06,-3.64e-06,0.0,0 STARLINK-4649,1 53831U 22114P   24115.37701747 -.00000364  00000-0 -47718-5 0  9996,2 53831  53.2176 136.1061 0001454 100.7007 259.4148 15.08841024 88982,6917.877,95.437,540.748,538.736,0.0
53831.0,STARLINK-4649,PAYLOAD,2024-04-25 00:56:45,15.08845396,0.0001456,53.2177,133.1316,98.6343,261.4814,6.1568e-05,6.92e-06,0.0,0 STARLINK-4649,1 53831U 22114P   24116.03941075  .00000692  00000-0  61568-4 0  9990,2 53831  53.2177 133.1316 0001456  98.6343 261.4814 15.08845396 89084,6917.864,95.437,540.736,538.722,0.0
53831.0,STARLINK-4649,PAYLOAD,2024-04-25 07:18:17,15.08846164,0.0001458,53.2177,131.9423,98.4361,261.6796,6.3461e-05,7.22e-06,0.0,0 STARLINK-4649,1 53831U 22114P   24116.30436925  .00000722  00000-0  63461-4 0  9991,2 53831  53.2177 131.9423 0001458  98.4361 261.6796 15.08846164 89668,6917.862,95.437,540.735,538.718,0.0
